[
    {
       "OBJECT_NAME": "STARLINK-1978",
       "OBJECT_ID": "2021-009AE",
       "EPOCH": "2022-03-13T10:33:19.542528",
       "MEAN_MOTION": 15.06398222,
       "ECCENTRICITY": 0.0002008,
       "INCLINATION": 53.055,
       "RA_OF_ASC_NODE": 63.4616,
       "ARG_OF_PERICENTER": 54.4262,
       "MEAN_ANOMALY": 305.6914,
       "EPHEMERIS_TYPE": 0,
       "CLASSIFICATION_TYPE": "U",
       "NORAD_CAT_ID": 47576,
       "ELEMENT_SET_NO": 999,
       "REV_AT_EPOCH": 6143,
       "BSTAR": -0.00010865,
       "MEAN_MOTION_DOT": -0.000019,
       "MEAN_MOTION_DDOT": 0
    },
    {
       "OBJECT_NAME": "STARLINK-1979",
       "OBJECT_ID": "2021-009AF",
       "EPOCH": "2022-03-13T19:30:05.151168",
       "MEAN_MOTION": 15.06394173,
       "ECCENTRICITY": 0.0001885,
       "INCLINATION": 53.0545,
       "RA_OF_ASC_NODE": 76.7988,
       "ARG_OF_PERICENTER": 53.1766,
       "MEAN_ANOMALY": 306.9395,
       "EPHEMERIS_TYPE": 0,
       "CLASSIFICATION_TYPE": "U",
       "NORAD_CAT_ID": 47577,
       "ELEMENT_SET_NO": 999,
       "REV_AT_EPOCH": 6188,
       "BSTAR": -0.00013094,
       "MEAN_MOTION_DOT": -0.00002231,
       "MEAN_MOTION_DDOT": 0
    },
    {
       "OBJECT_NAME": "STARLINK-1980",
       "OBJECT_ID": "2021-009AG",
       "EPOCH": "2022-03-13T19:21:26.507520",
       "MEAN_MOTION": 15.06405593,
       "ECCENTRICITY": 0.0001901,
       "INCLINATION": 53.0536,
       "RA_OF_ASC_NODE": 81.8175,
       "ARG_OF_PERICENTER": 55.8859,
       "MEAN_ANOMALY": 304.231,
       "EPHEMERIS_TYPE": 0,
       "CLASSIFICATION_TYPE": "U",
       "NORAD_CAT_ID": 47578,
       "ELEMENT_SET_NO": 999,
       "REV_AT_EPOCH": 6180,
       "BSTAR": 0.000069158,
       "MEAN_MOTION_DOT": 0.00000749,
       "MEAN_MOTION_DDOT": 0
    },
    {
       "OBJECT_NAME": "STARLINK-1981",
       "OBJECT_ID": "2021-009AH",
       "EPOCH": "2022-03-13T07:47:28.343904",
       "MEAN_MOTION": 15.06397825,
       "ECCENTRICITY": 0.0001805,
       "INCLINATION": 53.0555,
       "RA_OF_ASC_NODE": 73.987,
       "ARG_OF_PERICENTER": 49.5067,
       "MEAN_ANOMALY": 310.6079,
       "EPHEMERIS_TYPE": 0,
       "CLASSIFICATION_TYPE": "U",
       "NORAD_CAT_ID": 47579,
       "ELEMENT_SET_NO": 999,
       "REV_AT_EPOCH": 6127,
       "BSTAR": 0.000050478,
       "MEAN_MOTION_DOT": 0.0000047,
       "MEAN_MOTION_DDOT": 0
    },
    {
       "OBJECT_NAME": "STARLINK-1982",
       "OBJECT_ID": "2021-009AJ",
       "EPOCH": "2022-03-13T09:53:31.405056",
       "MEAN_MOTION": 15.06394311,
       "ECCENTRICITY": 0.0001636,
       "INCLINATION": 53.055,
       "RA_OF_ASC_NODE": 83.591,
       "ARG_OF_PERICENTER": 53.3881,
       "MEAN_ANOMALY": 306.7258,
       "EPHEMERIS_TYPE": 0,
       "CLASSIFICATION_TYPE": "U",
       "NORAD_CAT_ID": 47580,
       "ELEMENT_SET_NO": 999,
       "REV_AT_EPOCH": 6114,
       "BSTAR": -0.000364,
       "MEAN_MOTION_DOT": -0.00005698,
       "MEAN_MOTION_DDOT": 0
    },
    {
       "OBJECT_NAME": "STARLINK-1984",
       "OBJECT_ID": "2021-009AK",
       "EPOCH": "2022-03-13T10:59:52.260864",
       "MEAN_MOTION": 15.06395678,
       "ECCENTRICITY": 0.000181,
       "INCLINATION": 53.056,
       "RA_OF_ASC_NODE": 63.3947,
       "ARG_OF_PERICENTER": 58.695,
       "MEAN_ANOMALY": 301.4216,
       "EPHEMERIS_TYPE": 0,
       "CLASSIFICATION_TYPE": "U",
       "NORAD_CAT_ID": 47581,
       "ELEMENT_SET_NO": 999,
       "REV_AT_EPOCH": 6143,
       "BSTAR": -0.000094448,
       "MEAN_MOTION_DOT": -0.00001688,
       "MEAN_MOTION_DDOT": 0
    },
    {
       "OBJECT_NAME": "STARLINK-1986",
       "OBJECT_ID": "2021-009AL",
       "EPOCH": "2022-03-13T10:41:18.581280",
       "MEAN_MOTION": 15.06400209,
       "ECCENTRICITY": 0.0002033,
       "INCLINATION": 53.0546,
       "RA_OF_ASC_NODE": 83.451,
       "ARG_OF_PERICENTER": 49.0072,
       "MEAN_ANOMALY": 311.1092,
       "EPHEMERIS_TYPE": 0,
       "CLASSIFICATION_TYPE": "U",
       "NORAD_CAT_ID": 47582,
       "ELEMENT_SET_NO": 999,
       "REV_AT_EPOCH": 6115,
       "BSTAR": -0.000074562,
       "MEAN_MOTION_DOT": -0.00001392,
       "MEAN_MOTION_DDOT": 0
    },
    {
       "OBJECT_NAME": "STARLINK-1987",
       "OBJECT_ID": "2021-009AM",
       "EPOCH": "2022-03-13T18:07:08.427360",
       "MEAN_MOTION": 15.06391286,
       "ECCENTRICITY": 0.0001838,
       "INCLINATION": 53.0532,
       "RA_OF_ASC_NODE": 82.0496,
       "ARG_OF_PERICENTER": 52.8407,
       "MEAN_ANOMALY": 307.275,
       "EPHEMERIS_TYPE": 0,
       "CLASSIFICATION_TYPE": "U",
       "NORAD_CAT_ID": 47583,
       "ELEMENT_SET_NO": 999,
       "REV_AT_EPOCH": 6181,
       "BSTAR": -0.00026937,
       "MEAN_MOTION_DOT": -0.00004291,
       "MEAN_MOTION_DDOT": 0
    },
    {
       "OBJECT_NAME": "STARLINK-1989",
       "OBJECT_ID": "2021-009AP",
       "EPOCH": "2022-03-13T10:46:35.453280",
       "MEAN_MOTION": 15.06406824,
       "ECCENTRICITY": 0.0002244,
       "INCLINATION": 53.0543,
       "RA_OF_ASC_NODE": 83.4274,
       "ARG_OF_PERICENTER": 38.6359,
       "MEAN_ANOMALY": 321.479,
       "EPHEMERIS_TYPE": 0,
       "CLASSIFICATION_TYPE": "U",
       "NORAD_CAT_ID": 47585,
       "ELEMENT_SET_NO": 999,
       "REV_AT_EPOCH": 6115,
       "BSTAR": -0.000049719,
       "MEAN_MOTION_DOT": -0.00001022,
       "MEAN_MOTION_DDOT": 0
    },
    {
       "OBJECT_NAME": "STARLINK-1990",
       "OBJECT_ID": "2021-009AQ",
       "EPOCH": "2022-03-13T11:58:16.195584",
       "MEAN_MOTION": 15.063898,
       "ECCENTRICITY": 0.0001671,
       "INCLINATION": 53.055,
       "RA_OF_ASC_NODE": 103.2013,
       "ARG_OF_PERICENTER": 46.6762,
       "MEAN_ANOMALY": 313.4366,
       "EPHEMERIS_TYPE": 0,
       "CLASSIFICATION_TYPE": "U",
       "NORAD_CAT_ID": 47586,
       "ELEMENT_SET_NO": 999,
       "REV_AT_EPOCH": 6088,
       "BSTAR": -0.000094207,
       "MEAN_MOTION_DOT": -0.00001684,
       "MEAN_MOTION_DDOT": 0
    },
    {
       "OBJECT_NAME": "STARLINK-1991",
       "OBJECT_ID": "2021-009AR",
       "EPOCH": "2022-03-13T10:16:05.184192",
       "MEAN_MOTION": 15.06400843,
       "ECCENTRICITY": 0.0001485,
       "INCLINATION": 53.0553,
       "RA_OF_ASC_NODE": 73.5335,
       "ARG_OF_PERICENTER": 56.0799,
       "MEAN_ANOMALY": 304.0331,
       "EPHEMERIS_TYPE": 0,
       "CLASSIFICATION_TYPE": "U",
       "NORAD_CAT_ID": 47587,
       "ELEMENT_SET_NO": 999,
       "REV_AT_EPOCH": 6129,
       "BSTAR": -0.00016347,
       "MEAN_MOTION_DOT": -0.00002716,
       "MEAN_MOTION_DDOT": 0
    },
    {
       "OBJECT_NAME": "STARLINK-1993",
       "OBJECT_ID": "2021-009AS",
       "EPOCH": "2022-03-13T08:28:35.608224",
       "MEAN_MOTION": 15.06412214,
       "ECCENTRICITY": 0.0001737,
       "INCLINATION": 53.0537,
       "RA_OF_ASC_NODE": 83.8519,
       "ARG_OF_PERICENTER": 61.2636,
       "MEAN_ANOMALY": 298.8527,
       "EPHEMERIS_TYPE": 0,
       "CLASSIFICATION_TYPE": "U",
       "NORAD_CAT_ID": 47588,
       "ELEMENT_SET_NO": 999,
       "REV_AT_EPOCH": 6114,
       "BSTAR": 0.000047114,
       "MEAN_MOTION_DOT": 0.0000042,
       "MEAN_MOTION_DDOT": 0
    },
    {
       "OBJECT_NAME": "STARLINK-1994",
       "OBJECT_ID": "2021-009AT",
       "EPOCH": "2022-03-13T08:55:07.516992",
       "MEAN_MOTION": 15.06416352,
       "ECCENTRICITY": 0.000178,
       "INCLINATION": 53.0549,
       "RA_OF_ASC_NODE": 83.7834,
       "ARG_OF_PERICENTER": 59.6975,
       "MEAN_ANOMALY": 300.419,
       "EPHEMERIS_TYPE": 0,
       "CLASSIFICATION_TYPE": "U",
       "NORAD_CAT_ID": 47589,
       "ELEMENT_SET_NO": 999,
       "REV_AT_EPOCH": 6114,
       "BSTAR": 0.00019191,
       "MEAN_MOTION_DOT": 0.00002579,
       "MEAN_MOTION_DDOT": 0
    },
    {
       "OBJECT_NAME": "STARLINK-1995",
       "OBJECT_ID": "2021-009AU",
       "EPOCH": "2022-03-13T13:28:28.885152",
       "MEAN_MOTION": 15.06410026,
       "ECCENTRICITY": 0.0002097,
       "INCLINATION": 53.0551,
       "RA_OF_ASC_NODE": 102.9251,
       "ARG_OF_PERICENTER": 49.8422,
       "MEAN_ANOMALY": 310.275,
       "EPHEMERIS_TYPE": 0,
       "CLASSIFICATION_TYPE": "U",
       "NORAD_CAT_ID": 47590,
       "ELEMENT_SET_NO": 999,
       "REV_AT_EPOCH": 6149,
       "BSTAR": 0.00029269,
       "MEAN_MOTION_DOT": 0.00004082,
       "MEAN_MOTION_DDOT": 0
    },
    {
       "OBJECT_NAME": "STARLINK-1996",
       "OBJECT_ID": "2021-009AV",
       "EPOCH": "2022-03-13T07:14:17.696544",
       "MEAN_MOTION": 15.0640862,
       "ECCENTRICITY": 0.0001953,
       "INCLINATION": 53.0543,
       "RA_OF_ASC_NODE": 84.0951,
       "ARG_OF_PERICENTER": 51.7601,
       "MEAN_ANOMALY": 308.3564,
       "EPHEMERIS_TYPE": 0,
       "CLASSIFICATION_TYPE": "U",
       "NORAD_CAT_ID": 47591,
       "ELEMENT_SET_NO": 999,
       "REV_AT_EPOCH": 6113,
       "BSTAR": 0.00001171,
       "MEAN_MOTION_DOT": -0.00000107,
       "MEAN_MOTION_DDOT": 0
    },
    {
       "OBJECT_NAME": "STARLINK-1997",
       "OBJECT_ID": "2021-009AW",
       "EPOCH": "2022-03-13T19:08:10.750560",
       "MEAN_MOTION": 15.06407392,
       "ECCENTRICITY": 0.0001648,
       "INCLINATION": 53.0533,
       "RA_OF_ASC_NODE": 101.872,
       "ARG_OF_PERICENTER": 61.6297,
       "MEAN_ANOMALY": 298.4858,
       "EPHEMERIS_TYPE": 0,
       "CLASSIFICATION_TYPE": "U",
       "NORAD_CAT_ID": 47592,
       "ELEMENT_SET_NO": 999,
       "REV_AT_EPOCH": 6152,
       "BSTAR": -0.00001372,
       "MEAN_MOTION_DOT": -0.00000486,
       "MEAN_MOTION_DDOT": 0
    },
    {
       "OBJECT_NAME": "STARLINK-1998",
       "OBJECT_ID": "2021-009AX",
       "EPOCH": "2022-03-13T18:25:43.999968",
       "MEAN_MOTION": 15.06393708,
       "ECCENTRICITY": 0.0002056,
       "INCLINATION": 53.0528,
       "RA_OF_ASC_NODE": 101.9916,
       "ARG_OF_PERICENTER": 46.3038,
       "MEAN_ANOMALY": 313.8121,
       "EPHEMERIS_TYPE": 0,
       "CLASSIFICATION_TYPE": "U",
       "NORAD_CAT_ID": 47593,
       "ELEMENT_SET_NO": 999,
       "REV_AT_EPOCH": 6152,
       "BSTAR": -0.00028647,
       "MEAN_MOTION_DOT": -0.00004545,
       "MEAN_MOTION_DDOT": 0
    }
 ]